[{"id":19,"customid":"101","nametw":"動物園","nameen":"Taipei Zoo","otherStations":"","landmarksTW":"動物園,貓空纜車","landmarksEN":"Taipei Zoo,Maokong Gondola","zip":11656,"addresstw":"台北市文山區新光路二段32號","lat":24.998197,"lon":121.579338,"officiallinenametw":"文湖線","officiallinenameen":"Wenhu Line","customlineid":"1"},{"id":18,"customid":"102","nametw":"木柵","nameen":"Muzha","otherStations":"","landmarksTW":"","landmarksEN":"","zip":11656,"addresstw":"台北市文山區木柵路四段135號","lat":24.998241,"lon":121.573145,"officiallinenametw":"文湖線","officiallinenameen":"Wenhu Line","customlineid":"1"},{"id":17,"customid":"103","nametw":"萬芳社區","nameen":"Wanfang Community","otherStations":"","landmarksTW":"","landmarksEN":"","zip":11653,"addresstw":"台北市文山區萬芳路60號","lat":24.998585,"lon":121.568102,"officiallinenametw":"文湖線","officiallinenameen":"Wenhu Line","customlineid":"1"},{"id":16,"customid":"104","nametw":"萬芳醫院","nameen":"Wanfang Hospital","otherStations":"","landmarksTW":"","landmarksEN":"","zip":11696,"addresstw":"台北市文山區興隆路三段113號","lat":24.999386,"lon":121.558152,"officiallinenametw":"文湖線","officiallinenameen":"Wenhu Line","customlineid":"1"},{"id":15,"customid":"105","nametw":"辛亥","nameen":"Xinhai","otherStations":"","landmarksTW":"","landmarksEN":"","zip":11694,"addresstw":"台北市文山區辛亥路四段128號","lat":25.005475,"lon":121.557107,"officiallinenametw":"文湖線","officiallinenameen":"Wenhu Line","customlineid":"1"},{"id":14,"customid":"106","nametw":"麟光","nameen":"Linguang","otherStations":"","landmarksTW":"","landmarksEN":"","zip":10676,"addresstw":"台北市大安區和平東路三段410號","lat":25.018535,"lon":121.558791,"officiallinenametw":"文湖線","officiallinenameen":"Wenhu Line","customlineid":"1"},{"id":13,"customid":"107","nametw":"六張犁","nameen":"Liuzhangli","otherStations":"","landmarksTW":"","landmarksEN":"","zip":10674,"addresstw":"台北市大安區和平東路三段168號","lat":25.023777,"lon":121.553115,"officiallinenametw":"文湖線","officiallinenameen":"Wenhu Line","customlineid":"1"},{"id":12,"customid":"108","nametw":"科技大樓","nameen":"Technology Building","otherStations":"","landmarksTW":"","landmarksEN":"","zip":10667,"addresstw":"台北市大安區復興南路二段235號","lat":25.026125,"lon":121.543437,"officiallinenametw":"文湖線","officiallinenameen":"Wenhu Line","customlineid":"1"},{"id":11,"customid":"T12","nametw":"大安","nameen":"Daan","otherStations":"109,224","landmarksTW":"","landmarksEN":"","zip":10683,"addresstw":"台北市大安區信義路四段2號","lat":25.032943,"lon":121.543551,"officiallinenametw":"文湖線","officiallinenameen":"Wenhu Line","customlineid":"1"},{"id":10,"customid":"T15","nametw":"忠孝復興","nameen":"Zhongxiao Fuxing","otherStations":"110,514","landmarksTW":"","landmarksEN":"","zip":10654,"addresstw":"台北市大安區忠孝東路四段47號","lat":25.041629,"lon":121.543767,"officiallinenametw":"文湖線","officiallinenameen":"Wenhu Line","customlineid":"1"},{"id":9,"customid":"T13","nametw":"南京復興","nameen":"Nanjing Fuxing","otherStations":"111,316","landmarksTW":"","landmarksEN":"","zip":10550,"addresstw":"台北市松山區南京東路三段253號","lat":25.052319,"lon":121.544011,"officiallinenametw":"文湖線","officiallinenameen":"Wenhu Line","customlineid":"1"},{"id":8,"customid":"112","nametw":"中山國中","nameen":"Zhongshan Junior High School","otherStations":"","landmarksTW":"","landmarksEN":"","zip":10476,"addresstw":"台北市中山區復興北路376號","lat":25.060849,"lon":121.544227,"officiallinenametw":"文湖線","officiallinenameen":"Wenhu Line","customlineid":"1"},{"id":7,"customid":"113","nametw":"松山機場","nameen":"SongShan Airport","otherStations":"","landmarksTW":"松山機場","landmarksEN":"SongShan Airport","zip":10576,"addresstw":"台北市松山區敦化北路338號","lat":25.063,"lon":121.551996,"officiallinenametw":"文湖線","officiallinenameen":"Wenhu Line","customlineid":"1"},{"id":21,"customid":"114","nametw":"大直","nameen":"Dazhi","otherStations":"","landmarksTW":"故宮 (轉公車棕13)","landmarksEN":"National Palace Museum (Take Bus Brown 13)","zip":10465,"addresstw":"台北市中山區北安路534之1號","lat":25.079477,"lon":121.546895,"officiallinenametw":"文湖線","officiallinenameen":"Wenhu Line","customlineid":"1"},{"id":22,"customid":"115","nametw":"劍南路","nameen":"Jiannan Rd.","otherStations":"","landmarksTW":"故宮 (轉公車棕20)","landmarksEN":"National Palace Museum (Take Bus Brown 20)","zip":10464,"addresstw":"台北市中山區北安路798號","lat":25.084853,"lon":121.555592,"officiallinenametw":"文湖線","officiallinenameen":"Wenhu Line","customlineid":"1"},{"id":23,"customid":"116","nametw":"西湖","nameen":"Xihu","otherStations":"","landmarksTW":"","landmarksEN":"","zip":11493,"addresstw":"台北市內湖區內湖路一段256號","lat":25.082133,"lon":121.567213,"officiallinenametw":"文湖線","officiallinenameen":"Wenhu Line","customlineid":"1"},{"id":24,"customid":"117","nametw":"港墘","nameen":"Gangqian","otherStations":"","landmarksTW":"","landmarksEN":"","zip":11446,"addresstw":"台北市內湖區內湖路一段663號","lat":25.080028,"lon":121.575081,"officiallinenametw":"文湖線","officiallinenameen":"Wenhu Line","customlineid":"1"},{"id":25,"customid":"118","nametw":"文德","nameen":"Wende","otherStations":"","landmarksTW":"","landmarksEN":"","zip":11475,"addresstw":"台北市內湖區文德路214號","lat":25.078532,"lon":121.584761,"officiallinenametw":"文湖線","officiallinenameen":"Wenhu Line","customlineid":"1"},{"id":26,"customid":"119","nametw":"內湖","nameen":"Neihu","otherStations":"","landmarksTW":"","landmarksEN":"","zip":11489,"addresstw":"台北市內湖區成功路四段186號","lat":25.083661,"lon":121.594408,"officiallinenametw":"文湖線","officiallinenameen":"Wenhu Line","customlineid":"1"},{"id":27,"customid":"120","nametw":"大湖公園","nameen":"Dahu Park","otherStations":"","landmarksTW":"大湖公園","landmarksEN":"Dahu Park","zip":11477,"addresstw":"台北市內湖區成功路五段11號","lat":25.083845,"lon":121.602141,"officiallinenametw":"文湖線","officiallinenameen":"Wenhu Line","customlineid":"1"},{"id":28,"customid":"121","nametw":"葫洲","nameen":"Huzhou","otherStations":"","landmarksTW":"","landmarksEN":"","zip":11486,"addresstw":"台北市內湖區康寧路三段16號","lat":25.072701,"lon":121.607158,"officiallinenametw":"文湖線","officiallinenameen":"Wenhu Line","customlineid":"1"},{"id":29,"customid":"122","nametw":"東湖","nameen":"Donghu","otherStations":"","landmarksTW":"","landmarksEN":"","zip":11486,"addresstw":"台北市內湖區康寧路三段235號","lat":25.067147,"lon":121.611445,"officiallinenametw":"文湖線","officiallinenameen":"Wenhu Line","customlineid":"1"},{"id":30,"customid":"123","nametw":"南港軟體園區","nameen":"Nangang Software Park","otherStations":"","landmarksTW":"","landmarksEN":"","zip":11568,"addresstw":"台北市南港區經貿二路183號","lat":25.059905,"lon":121.615953,"officiallinenametw":"文湖線","officiallinenameen":"Wenhu Line","customlineid":"1"},{"id":31,"customid":"T51","nametw":"南港展覽館","nameen":"Taipei Nangang Exhibition Center","otherStations":"124,522","landmarksTW":"","landmarksEN":"","zip":11568,"addresstw":"台北市南港區南港路一段32號","lat":25.055288,"lon":121.6175001,"officiallinenametw":"文湖線","officiallinenameen":"Wenhu Line","customlineid":"1"},{"id":71,"customid":"201","nametw":"淡水","nameen":"Tamsui","otherStations":"","landmarksTW":"淡水","landmarksEN":"Tamsui","zip":25158,"addresstw":"新北市淡水區中正路1號","lat":25.167818,"lon":121.445561,"officiallinenametw":"淡水信義線","officiallinenameen":"Tamsui-Xinyi Line","customlineid":"2"},{"id":70,"customid":"202","nametw":"紅樹林","nameen":"Hongshulin","otherStations":"","landmarksTW":"","landmarksEN":"","zip":25173,"addresstw":"新北市淡水區中正東路二段68號","lat":25.154042,"lon":121.458872,"officiallinenametw":"淡水信義線","officiallinenameen":"Tamsui-Xinyi Line","customlineid":"2"},{"id":69,"customid":"203","nametw":"竹圍","nameen":"Zhuwei","otherStations":"","landmarksTW":"","landmarksEN":"","zip":25173,"addresstw":"新北市淡水區民權路50號","lat":25.13694,"lon":121.459479,"officiallinenametw":"淡水信義線","officiallinenameen":"Tamsui-Xinyi Line","customlineid":"2"},{"id":68,"customid":"204","nametw":"關渡","nameen":"Guandu","otherStations":"","landmarksTW":"","landmarksEN":"","zip":11259,"addresstw":"台北市北投區大度路三段296巷51號","lat":25.125633,"lon":121.467102,"officiallinenametw":"淡水信義線","officiallinenameen":"Tamsui-Xinyi Line","customlineid":"2"},{"id":67,"customid":"205","nametw":"忠義","nameen":"Zhongyi","otherStations":"","landmarksTW":"","landmarksEN":"","zip":11257,"addresstw":"台北市北投區中央北路四段301號","lat":25.130969,"lon":121.47341,"officiallinenametw":"淡水信義線","officiallinenameen":"Tamsui-Xinyi Line","customlineid":"2"},{"id":66,"customid":"206","nametw":"復興崗","nameen":"Fuxinggang","otherStations":"","landmarksTW":"","landmarksEN":"","zip":11257,"addresstw":"台北市北投區中央北路三段53巷10號","lat":25.137474,"lon":121.485444,"officiallinenametw":"淡水信義線","officiallinenameen":"Tamsui-Xinyi Line","customlineid":"2"},{"id":65,"customid":"207A","nametw":"新北投","nameen":"XinBeitou","otherStations":"","landmarksTW":"新北投","landmarksEN":"XinBeitou","zip":11246,"addresstw":"台北市北投區光明路1號","lat":25.131841,"lon":121.498633,"officiallinenametw":"淡水信義線","officiallinenameen":"Tamsui-Xinyi Line","customlineid":"2"},{"id":64,"customid":"T207","nametw":"北投","nameen":"Beitou","otherStations":"207","landmarksTW":"北投","landmarksEN":"Beitou","zip":11268,"addresstw":"台北市北投區大業路700號","lat":25.136933,"lon":121.50253,"officiallinenametw":"淡水信義線","officiallinenameen":"Tamsui-Xinyi Line","customlineid":"2"},{"id":63,"customid":"208","nametw":"奇岩","nameen":"Qiyan","otherStations":"","landmarksTW":"","landmarksEN":"","zip":11270,"addresstw":"台北市北投區三合街二段489號","lat":25.125491,"lon":121.501132,"officiallinenametw":"淡水信義線","officiallinenameen":"Tamsui-Xinyi Line","customlineid":"2"},{"id":62,"customid":"209","nametw":"唭哩岸","nameen":"Qilian","otherStations":"","landmarksTW":"","landmarksEN":"","zip":11265,"addresstw":"台北市北投區東華街二段301號","lat":25.120872,"lon":121.506252,"officiallinenametw":"淡水信義線","officiallinenameen":"Tamsui-Xinyi Line","customlineid":"2"},{"id":61,"customid":"210","nametw":"石牌","nameen":"Shipai","otherStations":"","landmarksTW":"","landmarksEN":"","zip":11271,"addresstw":"台北市北投區石牌路一段200號","lat":25.114523,"lon":121.515559,"officiallinenametw":"淡水信義線","officiallinenameen":"Tamsui-Xinyi Line","customlineid":"2"},{"id":60,"customid":"211","nametw":"明德","nameen":"Mingde","otherStations":"","landmarksTW":"","landmarksEN":"","zip":11280,"addresstw":"台北市北投區明德路95號","lat":25.109721,"lon":121.518848,"officiallinenametw":"淡水信義線","officiallinenameen":"Tamsui-Xinyi Line","customlineid":"2"},{"id":59,"customid":"212","nametw":"芝山","nameen":"Zhishan","otherStations":"","landmarksTW":"","landmarksEN":"","zip":11158,"addresstw":"台北市士林區福國路70號","lat":25.10306,"lon":121.522514,"officiallinenametw":"淡水信義線","officiallinenameen":"Tamsui-Xinyi Line","customlineid":"2"},{"id":58,"customid":"213","nametw":"士林","nameen":"Shilin","otherStations":"","landmarksTW":"士林官邸, 故宮 (轉公車紅 30 / 255 / 304 / 815 / 小18 / 小19","landmarksEN":"Shilin Official Residence, National Palace Museum (Take bug R30 / 255 / 304 / 815 / S18 / S19)","zip":11163,"addresstw":"台北市士林區福德路1號","lat":25.093535,"lon":121.52623,"officiallinenametw":"淡水信義線","officiallinenameen":"Tamsui-Xinyi Line","customlineid":"2"},{"id":57,"customid":"214","nametw":"劍潭","nameen":"Jiantan","otherStations":"","landmarksTW":"陽明山 (轉公車紅5)","landmarksEN":"Yangmingshan (Take bus R5)","zip":11163,"addresstw":"台北市士林區中山北路五段65號","lat":25.084873,"lon":121.525078,"officiallinenametw":"淡水信義線","officiallinenameen":"Tamsui-Xinyi Line","customlineid":"2"},{"id":56,"customid":"215","nametw":"圓山","nameen":"Yuanshan","otherStations":"","landmarksTW":"圓山,孔廟,保安宮","landmarksEN":"Yuanshan,Temple of Confucius,Baoan Temple ","zip":10367,"addresstw":"台北市大同區酒泉街9之1號","lat":25.071353,"lon":121.520118,"officiallinenametw":"淡水信義線","officiallinenameen":"Tamsui-Xinyi Line","customlineid":"2"},{"id":55,"customid":"T24","nametw":"民權西路","nameen":"Minquan W. Rd.","otherStations":"216,411","landmarksTW":"","landmarksEN":"","zip":10365,"addresstw":"台北市大同區民權西路72號","lat":25.062905,"lon":121.51932,"officiallinenametw":"淡水信義線","officiallinenameen":"Tamsui-Xinyi Line","customlineid":"2"},{"id":54,"customid":"217","nametw":"雙連","nameen":"Shuanglian","otherStations":"","landmarksTW":"","landmarksEN":"","zip":10354,"addresstw":"台北市大同區民生西路47號","lat":25.057805,"lon":121.520627,"officiallinenametw":"淡水信義線","officiallinenameen":"Tamsui-Xinyi Line","customlineid":"2"},{"id":53,"customid":"T23","nametw":"中山","nameen":"Zhongshan","otherStations":"218,314","landmarksTW":"","landmarksEN":"","zip":10444,"addresstw":"台北市中山區南京西路16號","lat":25.052685,"lon":121.520392,"officiallinenametw":"淡水信義線","officiallinenameen":"Tamsui-Xinyi Line","customlineid":"2"},{"id":51,"customid":"T25","nametw":"台北車站","nameen":"Taipei Main Station","otherStations":"219,511","landmarksTW":"台北車站,陽明山 (轉公車260)","landmarksEN":"Taipei Main Station,Yangmingshan (Take bus 260)","zip":10041,"addresstw":"台北市中正區忠孝西路一段49號","lat":25.046255,"lon":121.517532,"officiallinenametw":"淡水信義線","officiallinenameen":"Tamsui-Xinyi Line","customlineid":"2"},{"id":50,"customid":"220","nametw":"台大醫院","nameen":"NTU Hospital","otherStations":"","landmarksTW":"總統府,國立台灣博物館,228公園","landmarksEN":"Office of the president,National Taiwan Museum, 228 Park","zip":10048,"addresstw":"台北市中正區公園路52號B1","lat":25.041256,"lon":121.51604,"officiallinenametw":"淡水信義線","officiallinenameen":"Tamsui-Xinyi Line","customlineid":"2"},{"id":42,"customid":"T32","nametw":"中正紀念堂","nameen":"Chiang Kai-Shek Memorial Hall","otherStations":"221,310","landmarksTW":"國立歷史博物館,中正紀念堂自由廣場","landmarksEN":"National Histroy Museum,Freedom Square","zip":10074,"addresstw":"台北市中正區羅斯福路一段8之1號B1","lat":25.032729,"lon":121.51827,"officiallinenametw":"淡水信義線","officiallinenameen":"Tamsui-Xinyi Line","customlineid":"2"},{"id":134,"customid":"T42","nametw":"東門","nameen":"Dongmen","otherStations":"222,406","landmarksTW":"","landmarksEN":"","zip":10650,"addresstw":"台北市大安區信義路二段166號B1","lat":25.033847,"lon":121.528739,"officiallinenametw":"淡水信義線","officiallinenameen":"Tamsui-Xinyi Line","customlineid":"2"},{"id":103,"customid":"223","nametw":"大安森林公園","nameen":"Daan Park","otherStations":"","landmarksTW":"大安森林公園","landmarksEN":"Daan Park","zip":10656,"addresstw":"台北市大安區信義路三段100號B1","lat":25.033396,"lon":121.534882,"officiallinenametw":"淡水信義線","officiallinenameen":"Tamsui-Xinyi Line","customlineid":"2"},{"id":101,"customid":"225","nametw":"信義安和","nameen":"Xinyi Anhe","otherStations":"","landmarksTW":"","landmarksEN":"","zip":10681,"addresstw":"台北市大安區信義路四段212之1號B1","lat":25.033326,"lon":121.553526,"officiallinenametw":"淡水信義線","officiallinenameen":"Tamsui-Xinyi Line","customlineid":"2"},{"id":100,"customid":"226","nametw":"台北101/世貿","nameen":"Taipei 101/World Trade Center","otherStations":"","landmarksTW":"台北101","landmarksEN":"Taipei 101","zip":11049,"addresstw":"台北市信義區信義路五段20號B1","lat":25.033102,"lon":121.563292,"officiallinenametw":"淡水信義線","officiallinenameen":"Tamsui-Xinyi Line","customlineid":"2"},{"id":99,"customid":"227","nametw":"象山","nameen":"Xiangshan","otherStations":"","landmarksTW":"","landmarksEN":"","zip":11080,"addresstw":"台北市信義區信義路五段152號B1","lat":25.03283,"lon":121.569576,"officiallinenametw":"淡水信義線","officiallinenameen":"Tamsui-Xinyi Line","customlineid":"2"},{"id":111,"customid":"319","nametw":"松山","nameen":"SongShan","otherStations":"","landmarksTW":"","landmarksEN":"","zip":11088,"addresstw":"台北市信義區松山路11號","lat":25.049283,"lon":121.578012,"officiallinenametw":"松山新店線","officiallinenameen":"Songshan-Xindian Line","customlineid":"3"},{"id":110,"customid":"318","nametw":"南京三民","nameen":"Nanjing Sanmin","otherStations":"","landmarksTW":"","landmarksEN":"","zip":10569,"addresstw":"台北市松山區南京東路5段237號","lat":25.051652,"lon":121.564708,"officiallinenametw":"松山新店線","officiallinenameen":"Songshan-Xindian Line","customlineid":"3"},{"id":109,"customid":"317","nametw":"台北小巨蛋","nameen":"Taipei Arena","otherStations":"","landmarksTW":"","landmarksEN":"","zip":10553,"addresstw":"台北市松山區南京東路4段10-1號","lat":25.051836,"lon":121.55153,"officiallinenametw":"松山新店線","officiallinenameen":"Songshan-Xindian Line","customlineid":"3"},{"id":132,"customid":"T43","nametw":"松江南京","nameen":"Songjiang Nanjing","otherStations":"315,408","landmarksTW":"","landmarksEN":"","zip":10457,"addresstw":"台北市中山區松江路126號B1","lat":25.052015,"lon":121.533075,"officiallinenametw":"松山新店線","officiallinenameen":"Songshan-Xindian Line","customlineid":"3"},{"id":105,"customid":"313","nametw":"北門","nameen":"Beimen","otherStations":"","landmarksTW":"","landmarksEN":"","zip":10341,"addresstw":"台北市大同區塔城街10號","lat":25.049554,"lon":121.510184,"officiallinenametw":"松山新店線","officiallinenameen":"Songshan-Xindian Line","customlineid":"3"},{"id":86,"customid":"T35","nametw":"西門","nameen":"Ximen","otherStations":"312,510","landmarksTW":"西門町","landmarksEN":"Ximending","zip":10042,"addresstw":"台北市中正區寶慶路32之1號B1","lat":25.04209,"lon":121.508303,"officiallinenametw":"松山新店線","officiallinenameen":"Songshan-Xindian Line","customlineid":"3"},{"id":43,"customid":"311","nametw":"小南門","nameen":"Xiaonanmen","otherStations":"","landmarksTW":"","landmarksEN":"","zip":10066,"addresstw":"台北市中正區愛國西路22號B1","lat":25.035547,"lon":121.510857,"officiallinenametw":"松山新店線","officiallinenameen":"Songshan-Xindian Line","customlineid":"3"},{"id":41,"customid":"T34","nametw":"古亭","nameen":"Guting","otherStations":"309,405","landmarksTW":"","landmarksEN":"","zip":10084,"addresstw":"台北市中正區羅斯福路二段164之1號B1","lat":25.026357,"lon":121.522873,"officiallinenametw":"松山新店線","officiallinenameen":"Songshan-Xindian Line","customlineid":"3"},{"id":40,"customid":"308","nametw":"台電大樓","nameen":"Taipower Building","otherStations":"","landmarksTW":"","landmarksEN":"","zip":10089,"addresstw":"台北市中正區羅斯福路三段126之5號B1","lat":25.020725,"lon":121.528168,"officiallinenametw":"松山新店線","officiallinenameen":"Songshan-Xindian Line","customlineid":"3"},{"id":39,"customid":"307","nametw":"公館","nameen":"Gongguan","otherStations":"","landmarksTW":"","landmarksEN":"","zip":10091,"addresstw":"台北市中正區羅斯福路四段74號B1","lat":25.014908,"lon":121.534216,"officiallinenametw":"松山新店線","officiallinenameen":"Songshan-Xindian Line","customlineid":"3"},{"id":38,"customid":"306","nametw":"萬隆","nameen":"Wanlong","otherStations":"","landmarksTW":"","landmarksEN":"","zip":11678,"addresstw":"台北市文山區羅斯福路五段214號","lat":25.001853,"lon":121.539051,"officiallinenametw":"松山新店線","officiallinenameen":"Songshan-Xindian Line","customlineid":"3"},{"id":37,"customid":"305","nametw":"景美","nameen":"Jingmei","otherStations":"","landmarksTW":"","landmarksEN":"","zip":11674,"addresstw":"台北市文山區羅斯福路六段393號","lat":24.9921276,"lon":121.5406037,"officiallinenametw":"松山新店線","officiallinenameen":"Songshan-Xindian Line","customlineid":"3"},{"id":36,"customid":"304","nametw":"大坪林","nameen":"Dapinglin","otherStations":"","landmarksTW":"","landmarksEN":"","zip":23143,"addresstw":"新北市新店區北新路三段190號","lat":24.982899,"lon":121.541352,"officiallinenametw":"松山新店線","officiallinenameen":"Songshan-Xindian Line","customlineid":"3"},{"id":35,"customid":"T303","nametw":"七張","nameen":"Qizhang","otherStations":"303","landmarksTW":"","landmarksEN":"","zip":23143,"addresstw":"新北市新店區北新路二段150號","lat":24.975169,"lon":121.542942,"officiallinenametw":"松山新店線","officiallinenameen":"Songshan-Xindian Line","customlineid":"3"},{"id":32,"customid":"303A","nametw":"小碧潭","nameen":"Xiaobitan","otherStations":"","landmarksTW":"","landmarksEN":"","zip":23150,"addresstw":"新北市新店區中央路151號4樓","lat":24.971907,"lon":121.530339,"officiallinenametw":"松山新店線","officiallinenameen":"Songshan-Xindian Line","customlineid":"3"},{"id":34,"customid":"302","nametw":"新店區公所","nameen":"Xindian District Office","otherStations":"","landmarksTW":"","landmarksEN":"","zip":23147,"addresstw":"新北市新店區北新路一段295號","lat":24.967393,"lon":121.54131,"officiallinenametw":"松山新店線","officiallinenameen":"Songshan-Xindian Line","customlineid":"3"},{"id":33,"customid":"301","nametw":"新店","nameen":"Xindian","otherStations":"","landmarksTW":"","landmarksEN":"","zip":23152,"addresstw":"新北市新店區北宜路一段2號","lat":24.957855,"lon":121.537584,"officiallinenametw":"松山新店線","officiallinenameen":"Songshan-Xindian Line","customlineid":"3"},{"id":48,"customid":"401","nametw":"南勢角","nameen":"Nanshijiao","otherStations":"","landmarksTW":"","landmarksEN":"","zip":23566,"addresstw":"新北市中和區捷運路6號","lat":24.990045,"lon":121.509237,"officiallinenametw":"中和新蘆線","officiallinenameen":"Zhonghe-Xinlu Line","customlineid":"4"},{"id":47,"customid":"402","nametw":"景安","nameen":"Jingan","otherStations":"","landmarksTW":"","landmarksEN":"","zip":23582,"addresstw":"新北市中和區景平路486號","lat":24.993905,"lon":121.505113,"officiallinenametw":"中和新蘆線","officiallinenameen":"Zhonghe-Xinlu Line","customlineid":"4"},{"id":46,"customid":"403","nametw":"永安市場","nameen":"Yongan Market","otherStations":"","landmarksTW":"","landmarksEN":"","zip":23574,"addresstw":"新北市中和區中和路388號","lat":25.002876,"lon":121.511231,"officiallinenametw":"中和新蘆線","officiallinenameen":"Zhonghe-Xinlu Line","customlineid":"4"},{"id":45,"customid":"404","nametw":"頂溪","nameen":"Dingxi","otherStations":"","landmarksTW":"","landmarksEN":"","zip":23445,"addresstw":"新北市永和區永和路二段168號B1","lat":25.013821,"lon":121.515485,"officiallinenametw":"中和新蘆線","officiallinenameen":"Zhonghe-Xinlu Line","customlineid":"4"},{"id":89,"customid":"T45","nametw":"忠孝新生","nameen":"Zhongxiao Xinsheng","otherStations":"407,513","landmarksTW":"","landmarksEN":"","zip":10652,"addresstw":"台北市大安區新生南路一段67號","lat":25.042356,"lon":121.532905,"officiallinenametw":"中和新蘆線","officiallinenameen":"Zhonghe-Xinlu Line","customlineid":"4"},{"id":131,"customid":"409","nametw":"行天宮","nameen":"Xingtian Temple","otherStations":"","landmarksTW":"行天宮","landmarksEN":"Xingtian Temple","zip":10468,"addresstw":"台北市中山區松江路316號B1","lat":25.059718,"lon":121.533185,"officiallinenametw":"中和新蘆線","officiallinenameen":"Zhonghe-Xinlu Line","customlineid":"4"},{"id":130,"customid":"410","nametw":"中山國小","nameen":"Zhongshan Elementary School","otherStations":"","landmarksTW":"","landmarksEN":"","zip":10452,"addresstw":"台北市中山區民權東路一段71號B1","lat":25.062694,"lon":121.526419,"officiallinenametw":"中和新蘆線","officiallinenameen":"Zhonghe-Xinlu Line","customlineid":"4"},{"id":128,"customid":"T412","nametw":"大橋頭","nameen":"Daqiaotou","otherStations":"412","landmarksTW":"","landmarksEN":"","zip":10357,"addresstw":"台北市大同區民權西路223號B1","lat":25.063256,"lon":121.51272,"officiallinenametw":"中和新蘆線","officiallinenameen":"Zhonghe-Xinlu Line","customlineid":"4"},{"id":127,"customid":"413A","nametw":"台北橋","nameen":"Taipei Bridge","otherStations":"","landmarksTW":"","landmarksEN":"","zip":24142,"addresstw":"新北市三重區重新路一段108號B1","lat":25.063274,"lon":121.500762,"officiallinenametw":"中和新蘆線","officiallinenameen":"Zhonghe-Xinlu Line","customlineid":"4A"},{"id":126,"customid":"414A","nametw":"菜寮","nameen":"Cailiao","otherStations":"","landmarksTW":"","landmarksEN":"","zip":24143,"addresstw":"新北市三重區重新路三段150號B1","lat":25.060274,"lon":121.492156,"officiallinenametw":"中和新蘆線","officiallinenameen":"Zhonghe-Xinlu Line","customlineid":"4A"},{"id":125,"customid":"415A","nametw":"三重","nameen":"Sanchong","otherStations":"","landmarksTW":"","landmarksEN":"","zip":24161,"addresstw":"新北市三重區捷運路36號B1","lat":25.055791,"lon":121.484725,"officiallinenametw":"中和新蘆線","officiallinenameen":"Zhonghe-Xinlu Line","customlineid":"4A"},{"id":124,"customid":"416A","nametw":"先嗇宮","nameen":"Xianse Temple","otherStations":"","landmarksTW":"","landmarksEN":"","zip":24158,"addresstw":"新北市三重區重新路五段515號B1","lat":25.046493,"lon":121.471916,"officiallinenametw":"中和新蘆線","officiallinenameen":"Zhonghe-Xinlu Line","customlineid":"4A"},{"id":123,"customid":"417A","nametw":"頭前庄","nameen":"Touqianzhuang","otherStations":"","landmarksTW":"","landmarksEN":"","zip":24251,"addresstw":"新北市新莊區思源路18號B1","lat":25.039705,"lon":121.461746,"officiallinenametw":"中和新蘆線","officiallinenameen":"Zhonghe-Xinlu Line","customlineid":"4A"},{"id":122,"customid":"418A","nametw":"新莊","nameen":"Xinzhuang","otherStations":"","landmarksTW":"","landmarksEN":"","zip":24243,"addresstw":"新北市新莊區中正路138號B1","lat":25.036125,"lon":121.452468,"officiallinenametw":"中和新蘆線","officiallinenameen":"Zhonghe-Xinlu Line","customlineid":"4A"},{"id":121,"customid":"419A","nametw":"輔大","nameen":"Fu Jen University","otherStations":"","landmarksTW":"","landmarksEN":"","zip":24205,"addresstw":"新北市新莊區中正路510之1號B1","lat":25.032718,"lon":121.43547,"officiallinenametw":"中和新蘆線","officiallinenameen":"Zhonghe-Xinlu Line","customlineid":"4A"},{"id":180,"customid":"420A","nametw":"丹鳳","nameen":"Danfeng","otherStations":"","landmarksTW":"","landmarksEN":"","zip":24256,"addresstw":"新北市新莊區中正路624之1號B1","lat":25.0288671,"lon":121.4227079,"officiallinenametw":"中和新蘆線","officiallinenameen":"Zhonghe-Xinlu Line","customlineid":"4A"},{"id":179,"customid":"421A","nametw":"迴龍","nameen":"Huilong","otherStations":"","landmarksTW":"","landmarksEN":"","zip":24257,"addresstw":"新北市新莊區中正路758號B1","lat":25.021862,"lon":121.41127,"officiallinenametw":"中和新蘆線","officiallinenameen":"Zhonghe-Xinlu Line","customlineid":"4A"},{"id":178,"customid":"413B","nametw":"三重國小","nameen":"Sanchong Elementary School","otherStations":"","landmarksTW":"","landmarksEN":"","zip":24149,"addresstw":"新北市三重區三和路三段5號B1","lat":25.070319,"lon":121.496904,"officiallinenametw":"中和新蘆線","officiallinenameen":"Zhonghe-Xinlu Line","customlineid":"4B"},{"id":177,"customid":"414B","nametw":"三和國中","nameen":"Sanhe Junior High School","otherStations":"","landmarksTW":"","landmarksEN":"","zip":24152,"addresstw":"新北市三重區三和路四段107號B1","lat":25.076859,"lon":121.486347,"officiallinenametw":"中和新蘆線","officiallinenameen":"Zhonghe-Xinlu Line","customlineid":"4B"},{"id":176,"customid":"415B","nametw":"徐匯中學","nameen":"St. Ignatius High School","otherStations":"","landmarksTW":"","landmarksEN":"","zip":24753,"addresstw":"新北市蘆洲區中山一路3號B1","lat":25.080728,"lon":121.479673,"officiallinenametw":"中和新蘆線","officiallinenameen":"Zhonghe-Xinlu Line","customlineid":"4B"},{"id":175,"customid":"416B","nametw":"三民高中","nameen":"Sanmin Senior High School","otherStations":"","landmarksTW":"","landmarksEN":"","zip":24760,"addresstw":"新北市蘆洲區三民路105號B1","lat":25.085456,"lon":121.473389,"officiallinenametw":"中和新蘆線","officiallinenameen":"Zhonghe-Xinlu Line","customlineid":"4B"},{"id":174,"customid":"417B","nametw":"蘆洲","nameen":"Luzhou","otherStations":"","landmarksTW":"","landmarksEN":"","zip":24760,"addresstw":"新北市蘆洲區三民路386號B1","lat":25.091554,"lon":121.464471,"officiallinenametw":"中和新蘆線","officiallinenameen":"Zhonghe-Xinlu Line","customlineid":"4B"},{"id":77,"customid":"501","nametw":"永寧","nameen":"Yongning","otherStations":"","landmarksTW":"","landmarksEN":"","zip":23671,"addresstw":"新北市土城區中央路三段105號B1","lat":24.966726,"lon":121.436072,"officiallinenametw":"板南線","officiallinenameen":"Bannan Line","customlineid":"5"},{"id":78,"customid":"502","nametw":"土城","nameen":"Tucheng","otherStations":"","landmarksTW":"","landmarksEN":"","zip":23671,"addresstw":"新北市土城區金城路一段105號B1","lat":24.973094,"lon":121.444362,"officiallinenametw":"板南線","officiallinenameen":"Bannan Line","customlineid":"5"},{"id":79,"customid":"503","nametw":"海山","nameen":"Haishan","otherStations":"","landmarksTW":"","landmarksEN":"","zip":23660,"addresstw":"新北市土城區海山路39號B2","lat":24.985339,"lon":121.448786,"officiallinenametw":"板南線","officiallinenameen":"Bannan Line","customlineid":"5"},{"id":80,"customid":"504","nametw":"亞東醫院","nameen":"Far Eastern Hospital","otherStations":"","landmarksTW":"","landmarksEN":"","zip":22060,"addresstw":"新北市板橋區南雅南路二段17號B1","lat":24.998037,"lon":121.452514,"officiallinenametw":"板南線","officiallinenameen":"Bannan Line","customlineid":"5"},{"id":81,"customid":"505","nametw":"府中","nameen":"Fuzhong","otherStations":"","landmarksTW":"","landmarksEN":"","zip":22055,"addresstw":"新北市板橋區縣民大道一段193號B1","lat":25.008619,"lon":121.459409,"officiallinenametw":"板南線","officiallinenameen":"Bannan Line","customlineid":"5"},{"id":82,"customid":"506","nametw":"板橋","nameen":"Banqiao","otherStations":"","landmarksTW":"板橋車站","landmarksEN":"Banqiao Station","zip":22041,"addresstw":"新北市板橋區站前路5號B1","lat":25.013618,"lon":121.462302,"officiallinenametw":"板南線","officiallinenameen":"Bannan Line","customlineid":"5"},{"id":83,"customid":"507","nametw":"新埔","nameen":"Xinpu","otherStations":"","landmarksTW":"","landmarksEN":"","zip":22047,"addresstw":"新北市板橋區民生路三段2號B1","lat":25.023738,"lon":121.468361,"officiallinenametw":"板南線","officiallinenameen":"Bannan Line","customlineid":"5"},{"id":84,"customid":"508","nametw":"江子翠","nameen":"Jiangzicui","otherStations":"","landmarksTW":"","landmarksEN":"","zip":22044,"addresstw":"新北市板橋區文化路二段296號B1","lat":25.03001,"lon":121.47239,"officiallinenametw":"板南線","officiallinenameen":"Bannan Line","customlineid":"5"},{"id":85,"customid":"509","nametw":"龍山寺","nameen":"Longshan Temple","otherStations":"","landmarksTW":"龍山寺","landmarksEN":"Longshan Temple","zip":10855,"addresstw":"台北市萬華區西園路一段153號","lat":25.03528,"lon":121.499826,"officiallinenametw":"板南線","officiallinenameen":"Bannan Line","customlineid":"5"},{"id":88,"customid":"512","nametw":"善導寺","nameen":"Shandao Temple","otherStations":"","landmarksTW":"","landmarksEN":"","zip":10049,"addresstw":"台北市中正區忠孝東路一段58號B1","lat":25.044823,"lon":121.523208,"officiallinenametw":"板南線","officiallinenameen":"Bannan Line","customlineid":"5"},{"id":91,"customid":"515","nametw":"忠孝敦化","nameen":"Zhongxiao Dunhua","otherStations":"","landmarksTW":"","landmarksEN":"","zip":10686,"addresstw":"台北市大安區忠孝東路四段182號","lat":25.041478,"lon":121.551098,"officiallinenametw":"板南線","officiallinenameen":"Bannan Line","customlineid":"5"},{"id":92,"customid":"516","nametw":"國父紀念館","nameen":"Sun Yat-Sen Memorial Hall","otherStations":"","landmarksTW":"國父紀念館","landmarksEN":"Sun Yat-sen Memorial Hall","zip":11072,"addresstw":"台北市信義區忠孝東路四段400號","lat":25.041349,"lon":121.557802,"officiallinenametw":"板南線","officiallinenameen":"Bannan Line","customlineid":"5"},{"id":93,"customid":"517","nametw":"市政府","nameen":"Taipei City Hall","otherStations":"","landmarksTW":"","landmarksEN":"","zip":11071,"addresstw":"台北市信義區忠孝東路五段2號","lat":25.041171,"lon":121.565228,"officiallinenametw":"板南線","officiallinenameen":"Bannan Line","customlineid":"5"},{"id":94,"customid":"518","nametw":"永春","nameen":"Yongchun","otherStations":"","landmarksTW":"","landmarksEN":"","zip":11061,"addresstw":"台北市信義區忠孝東路五段455號","lat":25.040859,"lon":121.576293,"officiallinenametw":"板南線","officiallinenameen":"Bannan Line","customlineid":"5"},{"id":95,"customid":"519","nametw":"後山埤","nameen":"Houshanpi","otherStations":"","landmarksTW":"","landmarksEN":"","zip":11575,"addresstw":"台北市南港區忠孝東路六段2號","lat":25.045055,"lon":121.582522,"officiallinenametw":"板南線","officiallinenameen":"Bannan Line","customlineid":"5"},{"id":96,"customid":"520","nametw":"昆陽","nameen":"Kunyang","otherStations":"","landmarksTW":"","landmarksEN":"","zip":11558,"addresstw":"台北市南港區忠孝東路六段451號","lat":25.050461,"lon":121.593268,"officiallinenametw":"板南線","officiallinenameen":"Bannan Line","customlineid":"5"},{"id":97,"customid":"521","nametw":"南港","nameen":"Nangang","otherStations":"","landmarksTW":"","landmarksEN":"","zip":11561,"addresstw":"台北市南港區忠孝東路七段380號","lat":25.052116,"lon":121.606686,"officiallinenametw":"板南線","officiallinenameen":"Bannan Line","customlineid":"5"}]